NORAD_CAT_ID,OBJECT_NAME,OBJECT_TYPE,EPOCH,MEAN_MOTION,ECCENTRICITY,INCLINATION,RA_OF_ASC_NODE,ARG_OF_PERICENTER,MEAN_ANOMALY,BSTAR,MEAN_MOTION_DOT,MEAN_MOTION_DDOT,TLE_LINE0,TLE_LINE1,TLE_LINE2,SEMIMAJOR_AXIS,PERIOD,APOGEE,PERIGEE,DECAYED
49155.0,STARLINK-3060,PAYLOAD,2022-05-08 14:00:01,15.1401804,0.0003248,70.0,186.6742,276.0759,32.2813,-0.042534,-0.00721219,0.0,0 STARLINK-3060,1 49155U 21082AB  22128.58334491 -.00721219  00000-0 -42534-1 0  9992,2 49155  70.0000 186.6742 0003248 276.0759  32.2813 15.14018040 38183,6902.098000000001,95.111,526.205,521.722,0.0
49155.0,STARLINK-3060,PAYLOAD,2022-05-08 22:00:00,15.13507783,0.0003259,70.0,185.8139,274.2268,50.118,-0.04329,-0.00723402,0.0,0 STARLINK-3060,1 49155U 21082AB  22128.91667824 -.00723402  00000-0 -43290-1 0  9994,2 49155  70.0000 185.8139 0003259 274.2268  50.1180 15.13507783  3646,6903.65,95.143,527.764,523.265,0.0
49155.0,STARLINK-3060,PAYLOAD,2022-05-09 14:00:01,15.12485,0.000338,70.0,184.0951,281.5588,72.9858,-0.044393,-0.00721028,0.0,0 STARLINK-3060,1 49155U 21082AB  22129.58335648 -.00721028  00000-0 -44393-1 0  9991,2 49155  70.0000 184.0951 0003380 281.5588  72.9858 15.12485000 38334,6906.761,95.208,530.961,526.2919999999998,0.0
49155.0,STARLINK-3060,PAYLOAD,2022-05-09 22:00:00,15.1197407,0.0003337,70.0,183.2368,275.8189,92.8124,-0.045111,-0.0072221,0.0,0 STARLINK-3060,1 49155U 21082AB  22129.91667824 -.00722210  00000-0 -45111-1 0  9995,2 49155  70.0000 183.2368 0003337 275.8189  92.8124 15.11974070  3633,6908.316999999999,95.24,532.488,527.877,0.0
49155.0,STARLINK-3060,PAYLOAD,2022-05-10 14:00:01,15.10951334,0.0003403,70.0,181.5221,281.6471,113.4443,-0.046243,-0.00719741,0.0,0 STARLINK-3060,1 49155U 21082AB  22130.58334491 -.00719741  00000-0 -46243-1 0  9993,2 49155  70.0000 181.5221 0003403 281.6471 113.4443 15.10951334 38487,6911.434,95.304,535.651,530.947,0.0
49155.0,STARLINK-3060,PAYLOAD,2022-05-10 20:12:43,15.11948445,0.0002762,69.9983,180.8512,286.4295,73.6567,-0.012468,-0.00208276,0.0,0 STARLINK-3060,1 49155U 21082AB  22130.84216467 -.00208276  00000-0 -12468-1 0  9992,2 49155  69.9983 180.8512 0002762 286.4295  73.6567 15.11948445 38522,6908.395,95.241,532.168,528.352,0.0
49155.0,STARLINK-3060,PAYLOAD,2022-05-11 22:00:00,15.08907261,0.000336,70.0,178.101,281.2585,159.3998,-0.048957,-0.00720139,0.0,0 STARLINK-3060,1 49155U 21082AB  22131.91667824 -.00720139  00000-0 -48957-1 0  9997,2 49155  70.0000 178.1010 0003360 281.2585 159.3998 15.08907261 38682,6917.675,95.433,541.864,537.215,0.0
49155.0,STARLINK-3060,PAYLOAD,2022-05-12 14:00:01,15.07883825,0.0003323,70.0,176.3944,281.0881,178.6774,-0.0501,-0.00716819,0.0,0 STARLINK-3060,1 49155U 21082AB  22132.58334491 -.00716819  00000-0 -50100-1 0  9995,2 49155  70.0000 176.3944 0003323 281.0881 178.6774 15.07883825  1307,6920.805,95.498,544.969,540.37,0.0
49155.0,STARLINK-3060,PAYLOAD,2022-05-12 22:00:00,15.07374126,0.0003324,70.0,175.5422,281.6689,186.7303,-0.050997,-0.00719394,0.0,0 STARLINK-3060,1 49155U 21082AB  22132.91667824 -.00719394  00000-0 -50997-1 0  9996,2 49155  70.0000 175.5422 0003324 281.6689 186.7303 15.07374126  1309,6922.365,95.53,546.531,541.929,0.0
49155.0,STARLINK-3060,PAYLOAD,2022-05-13 06:00:00,15.06866226,0.0003461,70.0003,174.6906,289.046,187.3735,-0.052122,-0.00724799,0.0,0 STARLINK-3060,1 49155U 21082AB  22133.25001157 -.00724799  00000-0 -52122-1 0  9992,2 49155  70.0003 174.6906 0003461 289.0460 187.3735 15.06866226 38885,6923.92,95.563,548.181,543.389,0.0
49155.0,STARLINK-3060,PAYLOAD,2022-05-13 14:00:01,15.06350614,0.0003273999999999,70.0,173.8396,281.2743,202.5553,-0.052186,-0.00716204,0.0,0 STARLINK-3060,1 49155U 21082AB  22133.58334491 -.00716204  00000-0 -52186-1 0  9990,2 49155  70.0000 173.8396 0003274 281.2743 202.5553 15.06350614  1300,6925.5,95.595,549.632,545.0980000000002,0.0
49155.0,STARLINK-3060,PAYLOAD,2022-05-13 22:00:00,15.05841168,0.0003242,70.0,172.9895,280.788,209.8368,-0.053137,-0.00719061,0.0,0 STARLINK-3060,1 49155U 21082AB  22133.91667824 -.00719061  00000-0 -53137-1 0  9997,2 49155  70.0000 172.9895 0003242 280.7880 209.8368 15.05841168  1307,6927.062,95.628,551.173,546.681,0.0
49155.0,STARLINK-3060,PAYLOAD,2022-05-14 14:00:01,15.04817715,0.0003294,70.0,171.2909,284.6429,217.7356,-0.054384,-0.00716134,0.0,0 STARLINK-3060,1 49155U 21082AB  22134.58334491 -.00716134  00000-0 -54384-1 0  9995,2 49155  70.0000 171.2909 0003294 284.6429 217.7356 15.04817715 39085,6930.2019999999975,95.693,554.35,549.784,0.0
49155.0,STARLINK-3060,PAYLOAD,2022-05-14 22:00:00,15.04308247,0.0003231,70.0,170.4428,280.963,226.3724,-0.055359,-0.00718864,0.0,0 STARLINK-3060,1 49155U 21082AB  22134.91667824 -.00718864  00000-0 -55359-1 0  9996,2 49155  70.0000 170.4428 0003231 280.9630 226.3724 15.04308247  1300,6931.767,95.725,555.872,551.3919999999998,0.0
49155.0,STARLINK-3060,PAYLOAD,2022-05-15 14:00:01,15.0328509,0.0003207,69.9999,168.7482,280.8042,234.6708,-0.056696,-0.00716524,0.0,0 STARLINK-3060,1 49155U 21082AB  22135.58335648 -.00716524  00000-0 -56696-1 0  9992,2 49155  69.9999 168.7482 0003207 280.8042 234.6708 15.03285090 39239,6934.9119999999975,95.79,559.001,554.553,0.0
49155.0,STARLINK-3060,PAYLOAD,2022-05-15 22:00:00,15.02775299,0.0003164,70.0,167.9021,278.1397,240.3913,-0.057659,-0.00718702,0.0,0 STARLINK-3060,1 49155U 21082AB  22135.91667824 -.00718702  00000-0 -57659-1 0  9993,2 49155  70.0000 167.9021 0003164 278.1397 240.3913 15.02775299  1303,6936.48,95.823,560.54,556.15,0.0
49155.0,STARLINK-3060,PAYLOAD,2022-05-16 14:00:01,15.01616746,0.0003218,69.9998,166.2112,278.9827,243.9651,-0.0058219,-0.00074982,0.0,0 STARLINK-3060,1 49155U 21082AB  22136.58334491 -.00074982  00000-0 -58219-2 0  9997,2 49155  69.9998 166.2112 0003218 278.9827 243.9651 15.01616746 39382,6940.047,95.897,564.146,559.679,0.0
49155.0,STARLINK-3060,PAYLOAD,2022-05-16 22:00:00,15.01568051,0.0003191999999999,70.0,165.3666,278.5815,245.7581,0.00012295,1.501e-05,0.0,0 STARLINK-3060,1 49155U 21082AB  22136.91667824  .00001501  00000-0  12295-3 0  9993,2 49155  70.0000 165.3666 0003192 278.5815 245.7581 15.01568051  1305,6940.196999999999,95.9,564.278,559.847,0.0
49155.0,STARLINK-3060,PAYLOAD,2022-05-17 06:00:00,15.01617526,0.0003478999999999,69.9975,164.5147,279.8042,246.0337,-0.0024642,-0.00031987,0.0,0 STARLINK-3060,1 49155U 21082AB  22137.25001157 -.00031987  00000-0 -24642-2 0  9993,2 49155  69.9975 164.5147 0003479 279.8042 246.0337 15.01617526 39487,6940.045,95.897,564.3240000000002,559.496,0.0
49155.0,STARLINK-3060,PAYLOAD,2022-05-17 14:00:01,15.0160714,0.0003488,69.9971,163.6699,284.0971,243.1915,-0.0049257,-0.00063542,0.0,0 STARLINK-3060,1 49155U 21082AB  22137.58335648 -.00063542  00000-0 -49257-2 0  9995,2 49155  69.9971 163.6699 0003488 284.0971 243.1915 15.01607140  1305,6940.0769999999975,95.897,564.363,559.521,0.0
49155.0,STARLINK-3060,PAYLOAD,2022-05-17 20:00:01,15.01555486,0.0003419,69.9973,163.0362,279.6973,158.5862,-0.0036641,-0.00047336,0.0,0 STARLINK-3060,1 49155U 21082AB  22137.83334491 -.00047336  00000-0 -36641-2 0  9994,2 49155  69.9973 163.0362 0003419 279.6973 158.5862 15.01555486 39579,6940.236,95.901,564.474,559.7280000000002,0.0
49155.0,STARLINK-3060,PAYLOAD,2022-05-17 22:00:01,15.01519355,0.0003451,69.9973,162.8251,278.4394,250.2517,0.0014538,0.00018806,0.0,0 STARLINK-3060,1 49155U 21082AB  22137.91668981  .00018806  00000-0  14538-2 0  9996,2 49155  69.9973 162.8251 0003451 278.4394 250.2517 15.01519355  1305,6940.348000000001,95.903,564.6080000000002,559.817,0.0
49155.0,STARLINK-3060,PAYLOAD,2022-05-18 06:00:00,15.01530973,0.0003495,69.9975,161.9805,280.3389,249.6065,0.0010817,0.00013962,0.0,0 STARLINK-3060,1 49155U 21082AB  22138.25001157  .00013962  00000-0  10817-2 0  9994,2 49155  69.9975 161.9805 0003495 280.3389 249.6065 15.01530973 39632,6940.312,95.902,564.602,559.751,0.0
49155.0,STARLINK-3060,PAYLOAD,2022-05-18 14:00:01,15.01560364,0.000342,69.9971,161.1357,284.5261,246.7373,-0.00010405,-1.446e-05,0.0,0 STARLINK-3060,1 49155U 21082AB  22138.58334491 -.00001446  00000-0 -10405-3 0  9990,2 49155  69.9971 161.1357 0003420 284.5261 246.7373 15.01560364  1305,6940.221,95.9,564.46,559.7130000000002,0.0
49155.0,STARLINK-3060,PAYLOAD,2022-05-18 22:00:00,15.01526537,0.0003375,69.9974,160.2911,278.8727,253.7583,0.0051631,0.0006751,0.0,0 STARLINK-3060,1 49155U 21082AB  22138.91667824  .00067510  00000-0  51631-2 0  9993,2 49155  69.9974 160.2911 0003375 278.8727 253.7583 15.01526537  1301,6940.325,95.902,564.533,559.8480000000002,0.0
49155.0,STARLINK-3060,PAYLOAD,2022-05-19 14:00:01,15.01576534,0.0003379,69.9976,158.6029,284.8769,250.5263,-0.00087711,-0.00011468,0.0,0 STARLINK-3060,1 49155U 21082AB  22139.58335648 -.00011468  00000-0 -87711-3 0  9995,2 49155  69.9976 158.6029 0003379 284.8769 250.5263 15.01576534  1303,6940.170999999999,95.899,564.381,559.691,0.0
49155.0,STARLINK-3060,PAYLOAD,2022-05-19 22:00:00,15.01537053,0.0003337,69.9976,157.757,279.1677,257.5522,0.0050937,0.00066611,0.0,0 STARLINK-3060,1 49155U 21082AB  22139.91667824  .00066611  00000-0  50937-2 0  9993,2 49155  69.9976 157.7570 0003337 279.1677 257.5522 15.01537053 39885,6940.293000000002,95.902,564.474,559.842,0.0
49155.0,STARLINK-3060,PAYLOAD,2022-05-20 14:00:01,15.0158581,0.0003373,69.9976,156.0674,285.1532,254.2928,-0.0014275,-0.0001859,0.0,0 STARLINK-3060,1 49155U 21082AB  22140.58334491 -.00018590  00000-0 -14275-2 0  9999,2 49155  69.9976 156.0674 0003373 285.1532 254.2928 15.01585810 39988,6940.143,95.899,564.349,559.6669999999998,0.0
49155.0,STARLINK-3060,PAYLOAD,2022-05-20 22:00:00,15.01545901,0.000331,69.9978,155.2227,279.12,261.7149,0.0049423,0.00064625,0.0,0 STARLINK-3060,1 49155U 21082AB  22140.91667824  .00064625  00000-0  49423-2 0  9996,2 49155  69.9978 155.2227 0003310 279.1200 261.7149 15.01545901  1301,6940.266,95.901,564.428,559.8340000000002,0.0
